ZHUHAI-1 01 (CAS-4A)    
1 42761U 17034D   23136.55384029  .00010025  00000+0  50879-3 0  9995
2 42761  43.0170 290.0061 0012749 261.4581 182.6380 15.16961656326842
MAX VALIER SAT          
1 42778U 17036P   23136.54939125  .00019912  00000+0  54280-3 0  9991
2 42778  97.1589 172.1668 0008128 198.8699 161.2247 15.37465732327861
RADFXSAT (FOX-1B)       
1 43017U 17073E   23136.19848801  .00004977  00000+0  35177-3 0  9999
2 43017  97.6355  21.8068 0234927 174.4975 185.8910 14.85669125296434
FOX-1D (AO-92)          
1 43137U 18004AC  23136.46295635  .00032437  00000+0  71141-3 0  9991
2 43137  97.3296 215.3606 0005126 238.4222 121.6526 15.43996129297411
DIWATA-2B               
1 43678U 18084H   23136.42907067  .00002585  00000+0  25218-3 0  9999
2 43678  98.0172 279.7695 0008093 265.7027  94.3280 14.93332130247526
ES'HAIL 2               
1 43700U 18090A   23136.54016749  .00000141  00000+0  00000+0 0  9997
2 43700   0.0133 278.1269 0001497 171.6154   4.5073  1.00273319 16376
FOX-1CLIFF (AO-95)      
1 43770U 18099N   23136.06542863  .00005545  00000+0  45527-3 0  9991
2 43770  97.5778 198.4694 0010479 232.1878 127.8397 14.99551451242794
ITASAT 1                
1 43786U 18099AE  23136.39480615  .00005158  00000+0  42691-3 0  9999
2 43786  97.5790 199.8228 0012150 219.5734 140.4603 14.99259610242884
JY1SAT (JO-97)          
1 43803U 18099AX  23136.10939235  .00005790  00000+0  46367-3 0  9991
2 43803  97.5699 199.5112 0011904 203.6340 156.4338 15.00478844242881
UWE-4                   
1 43880U 18111E   23136.17993788  .00005031  00000+0  38907-3 0  9990
2 43880  97.6373  41.8727 0014959 282.8259  77.1294 15.01853434239562
NEXUS (FO-99)           
1 43937U 19003F   23136.55773019  .00050321  00000+0  90014-3 0  9998
2 43937  97.0897 164.2235 0013344  42.6229 317.6055 15.49745399241146
JAISAT-1                
1 44419U 19038F   23136.49793936  .00022302  00000+0  79270-3 0  9994
2 44419  97.6723 117.2016 0017174  60.2871 300.0075 15.28879200213698
DUCHIFAT-3              
1 44854U 19089C   23136.52979719  .00010162  00000+0  69137-3 0  9994
2 44854  36.9635 280.4210 0008574  53.5136  24.8234 15.05800317188069
CAS-6 (TIANQIN 1)       
1 44881U 19093C   23136.43920401  .00001462  00000+0  18849-3 0  9990
2 44881  97.8611 215.4306 0014731 176.1690 183.9629 14.82468267184094
RS-44 & BREEZE-KM R/B   
1 44909U 19096E   23136.16758740  .00000030  00000+0  82785-4 0  9990
2 44909  82.5246   9.2254 0216324 261.8331  95.8183 12.79720568158060
BY70-2                  
1 45857U 20042B   23136.44359798  .00023764  00000+0  24990-2 0  9998
2 45857  97.9247 216.2605 0011063 114.7456 245.4837 14.89370082154814
SALSAT                  
1 46495U 20068K   23136.39482994  .00004737  00000+0  31596-3 0  9994
2 46495  97.7682  84.0724 0014327 223.4874 136.5224 15.07468649144283
RADFXSAT-2 (AO-109)     
1 47311U 21002C   23136.58794151  .00020543  00000+0  55736-3 0  9998
2 47311  60.6802 179.8788 0017571 157.2617 202.9259 15.37530509129423
UVSQ-SAT                
1 47438U 21006AB  23136.57915940  .00014271  00000+0  59968-3 0  9994
2 47438  97.3871 194.1585 0010364 184.3568 175.7580 15.23486542127839
DIY-1 (ARDUIQUBE)       
1 47963U 21022AH  23136.54893348  .00155307  00000+0  26723-2 0  9997
2 47963  97.5004  43.6299 0011550  78.1296 282.1250 15.50467198117672
XW-3 (CAS-9)            
1 50466U 21131B   23136.53018476  .00000626  00000+0  21787-3 0  9999
2 50466  98.5515 218.1743 0003484 220.3311 139.7618 14.38880778 72809
TEVEL-3                 
1 50988U 22002E   23136.56172645  .00022338  00000+0  92307-3 0  9998
2 50988  97.4347 203.7685 0007120 357.1337 109.1230 15.23985112 73942
TEVEL-8                 
1 50989U 22002F   23136.45090681  .00022083  00000+0  91458-3 0  9999
2 50989  97.4370 203.7147 0006759 356.8983 126.4118 15.23913963 73922
TEVEL-5                 
1 50998U 22002Q   23136.45996563  .00023208  00000+0  93689-3 0  9991
2 50998  97.4341 204.0145 0007476 349.1106 131.8277 15.24760784 73952
TEVEL-6                 
1 50999U 22002R   23136.45849229  .00023023  00000+0  92941-3 0  9993
2 50999  97.4341 204.0087 0007824 348.1410 132.8291 15.24759835 73954
TEVEL-1                 
1 51013U 22002AF  23136.50820742  .00022479  00000+0  93012-3 0  9990
2 51013  97.4340 203.6610 0006882 358.1484 126.0389 15.23940525 73931
TEVEL-7                 
1 51062U 22002CG  23136.45223593  .00022304  00000+0  92322-3 0  9999
2 51062  97.4362 203.6893 0006709 356.2133 127.0519 15.23930248 73926
TEVEL-4                 
1 51063U 22002CH  23136.52104919  .00022134  00000+0  91743-3 0  9995
2 51063  97.4365 203.7442 0006742 355.5481 117.2838 15.23885914 73931
TEVEL-2                 
1 51069U 22002CP  23136.56347271  .00022328  00000+0  92269-3 0  9994
2 51069  97.4350 203.7437 0006824 358.4813 107.1982 15.23984654 73947
GREENCUBE               
1 53106U 22080B   23130.54224914 -.00000003  00000+0  00000+0 0  9999
2 53106  70.1661 332.8054 0008272 193.3243 166.7199  6.42557278 19338
RS29S (SXC3-2110 CYCLO*)
1 53373U 22096D   23136.47453786  .00035310  00000+0  96843-3 0  9993
2 53373  97.4155  42.4469 0002158  96.7450  15.4191 15.37194036 42815
RS32S (SXC3-212 MONITO*)
1 53374U 22096E   23136.49175715  .00031967  00000+0  89813-3 0  9992
2 53374  97.4140  42.3885 0001705 105.6127   3.1154 15.36465292 42816
RS34S (SXC3-218 KUZBAS*)
1 53375U 22096F   23136.59853579  .00026556  00000+0  78797-3 0  9992
2 53375  97.4160  42.2641 0001715 108.3826 320.3480 15.34787774 42811
RS23S (SXC3-21 UTMN)    
1 53376U 22096G   23136.57304095  .00027230  00000+0  79541-3 0  9993
2 53376  97.4157  42.3090 0001847  96.5299   9.1737 15.35276268 42814
RS28S (SXC3-214 MIET-A*)
1 53377U 22096H   23136.47694014  .00023559  00000+0  70603-3 0  9996
2 53377  97.4168  42.1426 0001661 118.3789 345.4818 15.34497288 42798
RS26S (KAI-1)           
1 53378U 22096J   23136.48777071  .00020634  00000+0  64440-3 0  9996
2 53378  97.4183  41.9864 0001455 118.9959 345.0393 15.33214246 42788
RS19S (SXC3-219 ISOI)   
1 53381U 22096M   23136.50929690  .00024291  00000+0  71015-3 0  9998
2 53381  97.4161  42.3967 0004495 139.0082 343.0696 15.35266250 42817
RS21S (CUBESX-HSE-2)    
1 53383U 22096P   23136.48699152  .00026325  00000+0  76090-3 0  9992
2 53383  97.4170  42.4289 0004742 143.0263 320.5694 15.35606577 42816
RS30S (SXC3-217 SIREN)  
1 53384U 22096Q   23136.55877406  .00021456  00000+0  64677-3 0  9999
2 53384  97.4170  42.3510 0005043 142.8736 342.3457 15.34322125 42812
RS20S (GEOSCAN-EDELVEIS)
1 53385U 22096R   23136.47242336  .00036237  00000+0  94754-3 0  9991
2 53385  97.4149  42.8904 0005064 139.4260 334.7856 15.38655510 42873
RS33S (SXC3-215 VIZARD) 
1 53386U 22096S   23136.52344042  .00045307  00000+0  10681-2 0  9999
2 53386  97.4151  43.4345 0005967 142.2337 342.6481 15.41756811 42908
CAS-5A (FO-118)         
1 54684U 22167C   23136.56801736  .00014179  00000+0  79561-3 0  9998
2 54684  97.5573 274.3867 0014856  86.0717  45.5097 15.13370592 23893
